{"type": "FeatureCollection", "features": [ {"type": "Feature", "properties": {"norad_id": 66661, "name": "SNUGLITE-III", "group": "last-30-days", "lat": -34.64192654733016, "lon": -75.18224783730462, "alt_km": 590.3535201809837, "timestamp": "2025-12-18T07:01:53.340998+00:00", "meta": {"OBJECT_NAME": "SNUGLITE-III", "OBJECT_ID": "2025-274M", "EPOCH": "2025-12-17T18:19:15.612960", "MEAN_MOTION": 14.9312536, "ECCENTRICITY": 0.00131237, "INCLINATION": 97.7401, "RA_OF_ASC_NODE": 278.9044, "ARG_OF_PERICENTER": 263.5364, "MEAN_ANOMALY": 96.4361, "EPHEMERIS_TYPE": 0, "CLASSIFICATION_TYPE": "U", "NORAD_CAT_ID": 66661, "ELEMENT_SET_NO": 999, "REV_AT_EPOCH": 315, "BSTAR": 0.00021831539, "MEAN_MOTION_DOT": 2.223e-05, "MEAN_MOTION_DDOT": 0}, "tle": {"line1": "1 66661U 25274M   25351.76337515  .00002223  00000+0  21832-3 0  9995", "line2": "2 66661  97.7401 278.9044 0013123 263.5364  96.4361 14.93125360  3150"}}, "geometry": {"type": "Point", "coordinates": [-75.18224783730462, -34.64192654733016]}}, {"type": "Feature", "properties": {"norad_id": 66662, "name": "2025-274N", "group": "last-30-days", "lat": -30.25667756392507, "lon": -76.02172186913253, "alt_km": 590.5148473434074, "timestamp": "2025-12-18T07:01:53.341008+00:00", "meta": {"OBJECT_NAME": "2025-274N", "OBJECT_ID": "2025-274N", "EPOCH": "2025-12-17T18:18:05.839776", "MEAN_MOTION": 14.93179706, "ECCENTRICITY": 0.00135453, "INCLINATION": 97.74, "RA_OF_ASC_NODE": 278.9058, "ARG_OF_PERICENTER": 263.1312, "MEAN_ANOMALY": 96.8367, "EPHEMERIS_TYPE": 0, "CLASSIFICATION_TYPE": "U", "NORAD_CAT_ID": 66662, "ELEMENT_SET_NO": 999, "REV_AT_EPOCH": 315, "BSTAR": 0.00023114602, "MEAN_MOTION_DOT": 2.36e-05, "MEAN_MOTION_DDOT": 0}, "tle": {"line1": "1 66662U 25274N   25351.76256759  .00002360  00000+0  23115-3 0  9994", "line2": "2 66662  97.7400 278.9058 0013545 263.1312  96.8367 14.93179706  3155"}}, "geometry": {"type": "Point", "coordinates": [-76.02172186913253, -30.25667756392507]}}, {"type": "Feature", "properties": {"norad_id": 66663, "name": "KSLV-II R/B", "group": "last-30-days", "lat": -63.61337831301268, "lon": -64.49946823248743, "alt_km": 543.2430758120245, "timestamp": "2025-12-18T07:01:53.341020+00:00", "meta": {"OBJECT_NAME": "KSLV-II R/B", "OBJECT_ID": "2025-274P", "EPOCH": "2025-12-17T18:29:13.608960", "MEAN_MOTION": 14.97394003, "ECCENTRICITY": 0.00561379, "INCLINATION": 97.7429, "RA_OF_ASC_NODE": 279.0651, "ARG_OF_PERICENTER": 301.8455, "MEAN_ANOMALY": 57.7309, "EPHEMERIS_TYPE": 0, "CLASSIFICATION_TYPE": "U", "NORAD_CAT_ID": 66663, "ELEMENT_SET_NO": 999, "REV_AT_EPOCH": 316, "BSTAR": 0.00050294981, "MEAN_MOTION_DOT": 5.976e-05, "MEAN_MOTION_DDOT": 0}, "tle": {"line1": "1 66663U 25274P   25351.77029640  .00005976  00000+0  50295-3 0  9998", "line2": "2 66663  97.7429 279.0651 0056137 301.8455  57.7309 14.97394003  3166"}}, "geometry": {"type": "Point", "coordinates": [-64.49946823248743, -63.61337831301268]}}, {"type": "Feature", "properties": {"norad_id": 66664, "name": "SOYUZ-MS 28", "group": "last-30-days", "lat": 46.84286636004236, "lon": 172.64513316051526, "alt_km": 413.37608787304, "timestamp": "2025-12-18T07:01:53.341032+00:00", "meta": {"OBJECT_NAME": "SOYUZ-MS 28", "OBJECT_ID": "2025-275A", "EPOCH": "2025-12-17T19:54:10.621440", "MEAN_MOTION": 15.49640803, "ECCENTRICITY": 0.00031686, "INCLINATION": 51.6309, "RA_OF_ASC_NODE": 117.2752, "ARG_OF_PERICENTER": 263.8701, "MEAN_ANOMALY": 96.1927, "EPHEMERIS_TYPE": 0, "CLASSIFICATION_TYPE": "U", "NORAD_CAT_ID": 66664, "ELEMENT_SET_NO": 999, "REV_AT_EPOCH": 128, "BSTAR": 0.00014328078, "MEAN_MOTION_DOT": 7.629e-05, "MEAN_MOTION_DDOT": 0}, "tle": {"line1": "1 66664U 25275A   25351.82928960  .00007629  00000+0  14328-3 0  9993", "line2": "2 66664  51.6309 117.2752 0003168 263.8701  96.1927 15.49640803  1289"}}, "geometry": {"type": "Point", "coordinates": [172.64513316051526, 46.84286636004236]}}, {"type": "Feature", "properties": {"norad_id": 66791, "name": "STARLINK-35867", "group": "last-30-days", "lat": -23.621637304189132, "lon": -169.77179742634152, "alt_km": 355.40790998394823, "timestamp": "2025-12-18T07:01:53.341044+00:00", "meta": {"OBJECT_NAME": "STARLINK-35867", "OBJECT_ID": "2025-278A", "EPOCH": "2025-12-17T22:00:01.999584", "MEAN_MOTION": 15.73402159, "ECCENTRICITY": 0.00013102, "INCLINATION": 42.9987, "RA_OF_ASC_NODE": 220.4956, "ARG_OF_PERICENTER": 269.6068, "MEAN_ANOMALY": 81.5588, "EPHEMERIS_TYPE": 0, "CLASSIFICATION_TYPE": "U", "NORAD_CAT_ID": 66791, "ELEMENT_SET_NO": 999, "REV_AT_EPOCH": 379, "BSTAR": -0.015452525, "MEAN_MOTION_DOT": -0.01957776, "MEAN_MOTION_DDOT": 0}, "tle": {"line1": "1 66791U 25278A   25351.91668981 -.01957776  00000+0 -15453-1 0  9999", "line2": "2 66791  42.9987 220.4956 0001310 269.6068  81.5588 15.73402159  3791"}}, "geometry": {"type": "Point", "coordinates": [-169.77179742634152, -23.621637304189132]}}, {"type": "Feature", "properties": {"norad_id": 66792, "name": "STARLINK-35990", "group": "last-30-days", "lat": -22.460532440761295, "lon": -168.1224845531004, "alt_km": 354.99577640134885, "timestamp": "2025-12-18T07:01:53.341055+00:00", "meta": {"OBJECT_NAME": "STARLINK-35990", "OBJECT_ID": "2025-278B", "EPOCH": "2025-12-17T22:00:01.999584", "MEAN_MOTION": 15.73396405, "ECCENTRICITY": 0.00017758, "INCLINATION": 42.9989, "RA_OF_ASC_NODE": 220.4906, "ARG_OF_PERICENTER": 276.7734, "MEAN_ANOMALY": 76.3093, "EPHEMERIS_TYPE": 0, "CLASSIFICATION_TYPE": "U", "NORAD_CAT_ID": 66792, "ELEMENT_SET_NO": 999, "REV_AT_EPOCH": 379, "BSTAR": -0.015394172, "MEAN_MOTION_DOT": -0.019119, "MEAN_MOTION_DDOT": 0}, "tle": {"line1": "1 66792U 25278B   25351.91668981 -.01911900  00000+0 -15394-1 0  9993", "line2": "2 66792  42.9989 220.4906 0001775 276.7734  76.3093 15.73396405  3792"}}, "geometry": {"type": "Point", "coordinates": [-168.1224845531004, -22.460532440761295]}}, {"type": "Feature", "properties": {"norad_id": 66793, "name": "STARLINK-36051", "group": "last-30-days", "lat": -20.0855169592027, "lon": -164.89916639738365, "alt_km": 354.9315909220495, "timestamp": "2025-12-18T07:01:53.341065+00:00", "meta": {"OBJECT_NAME": "STARLINK-36051", "OBJECT_ID": "2025-278C", "EPOCH": "2025-12-17T22:00:01.999584", "MEAN_MOTION": 15.73364946, "ECCENTRICITY": 0.00019086, "INCLINATION": 42.999, "RA_OF_ASC_NODE": 220.4813, "ARG_OF_PERICENTER": 272.0446, "MEAN_ANOMALY": 84.8956, "EPHEMERIS_TYPE": 0, "CLASSIFICATION_TYPE": "U", "NORAD_CAT_ID": 66793, "ELEMENT_SET_NO": 999, "REV_AT_EPOCH": 369, "BSTAR": -0.015125798, "MEAN_MOTION_DOT": -0.01880935, "MEAN_MOTION_DDOT": 0}, "tle": {"line1": "1 66793U 25278C   25351.91668981 -.01880935  00000+0 -15126-1 0  9990", "line2": "2 66793  42.9990 220.4813 0001908 272.0446  84.8956 15.73364946  3695"}}, "geometry": {"type": "Point", "coordinates": [-164.89916639738365, -20.0855169592027]}}, {"type": "Feature", "properties": {"norad_id": 66794, "name": "STARLINK-36062", "group": "last-30-days", "lat": -21.280364286820376, "lon": -166.49780838521744, "alt_km": 355.19790711036694, "timestamp": "2025-12-18T07:01:53.341075+00:00", "meta": {"OBJECT_NAME": "STARLINK-36062", "OBJECT_ID": "2025-278D", "EPOCH": "2025-12-17T22:00:01.999584", "MEAN_MOTION": 15.73409264, "ECCENTRICITY": 0.0001409, "INCLINATION": 42.9987, "RA_OF_ASC_NODE": 220.4857, "ARG_OF_PERICENTER": 271.7839, "MEAN_ANOMALY": 83.2117, "EPHEMERIS_TYPE": 0, "CLASSIFICATION_TYPE": "U", "NORAD_CAT_ID": 66794, "ELEMENT_SET_NO": 999, "REV_AT_EPOCH": 379, "BSTAR": -0.015518506, "MEAN_MOTION_DOT": -0.01965785, "MEAN_MOTION_DDOT": 0}, "tle": {"line1": "1 66794U 25278D   25351.91668981 -.01965785  00000+0 -15519-1 0  9994", "line2": "2 66794  42.9987 220.4857 0001409 271.7839  83.2117 15.73409264  3794"}}, "geometry": {"type": "Point", "coordinates": [-166.49780838521744, -21.280364286820376]}}, {"type": "Feature", "properties": {"norad_id": 66795, "name": "STARLINK-36047", "group": "last-30-days", "lat": -18.877974965489923, "lon": -163.32781964172892, "alt_km": 354.90557783203894, "timestamp": "2025-12-18T07:01:53.341084+00:00", "meta": {"OBJECT_NAME": "STARLINK-36047", "OBJECT_ID": "2025-278E", "EPOCH": "2025-12-17T22:00:01.999584", "MEAN_MOTION": 15.73403346, "ECCENTRICITY": 0.00017245, "INCLINATION": 42.9989, "RA_OF_ASC_NODE": 220.4765, "ARG_OF_PERICENTER": 273.4134, "MEAN_ANOMALY": 85.4189, "EPHEMERIS_TYPE": 0, "CLASSIFICATION_TYPE": "U", "NORAD_CAT_ID": 66795, "ELEMENT_SET_NO": 999, "REV_AT_EPOCH": 369, "BSTAR": -0.015482648, "MEAN_MOTION_DOT": -0.01961582, "MEAN_MOTION_DDOT": 0}, "tle": {"line1": "1 66795U 25278E   25351.91668981 -.01961582  00000+0 -15483-1 0  9996", "line2": "2 66795  42.9989 220.4765 0001724 273.4134  85.4189 15.73403346  3699"}}, "geometry": {"type": "Point", "coordinates": [-163.32781964172892, -18.877974965489923]}}, {"type": "Feature", "properties": {"norad_id": 66796, "name": "STARLINK-35964", "group": "last-30-days", "lat": 37.65764889363764, "lon": -19.01061009581343, "alt_km": 322.89755470529144, "timestamp": "2025-12-18T07:01:53.341095+00:00", "meta": {"OBJECT_NAME": "STARLINK-35964", "OBJECT_ID": "2025-278F", "EPOCH": "2025-12-17T22:00:01.999584", "MEAN_MOTION": 15.80824873, "ECCENTRICITY": 0.0001767, "INCLINATION": 42.9928, "RA_OF_ASC_NODE": 219.2247, "ARG_OF_PERICENTER": 261.9602, "MEAN_ANOMALY": 230.2142, "EPHEMERIS_TYPE": 0, "CLASSIFICATION_TYPE": "U", "NORAD_CAT_ID": 66796, "ELEMENT_SET_NO": 999, "REV_AT_EPOCH": 363, "BSTAR": 0.00043493365, "MEAN_MOTION_DOT": 0.00087004, "MEAN_MOTION_DDOT": 0}, "tle": {"line1": "1 66796U 25278F   25351.91668981  .00087004  00000+0  43493-3 0  9996", "line2": "2 66796  42.9928 219.2247 0001767 261.9602 230.2142 15.80824873  3636"}}, "geometry": {"type": "Point", "coordinates": [-19.01061009581343, 37.65764889363764]}}]}